{"type": "FeatureCollection", "features": [{"type": "Feature", "properties": {"name": "Escanaba River dispersed opportunity corridor", "notes": "Working corridor around clustered dispersed-access points on the Escanaba River. Use as a broad search aid, not parcel-level legal proof.", "source": "Working corridor from known dispersed access points"}, "geometry": {"type": "Polygon", "coordinates": [[[-87.34454543184354, 46.04520712786652], [-87.34533051463278, 46.04520712786652], [-87.34709482315871, 46.04529380278642], [-87.34787612555975, 46.04537075435634], [-87.34962344283011, 46.045629944389184], [-87.35039344047371, 46.04578310644335], [-87.35210693886799, 46.046212315447434], [-87.35285821625584, 46.04644021295151], [-87.35452139384783, 46.04703530740948], [-87.35524671576817, 46.04733574558597], [-87.35684355524847, 46.0480909944129], [-87.3575359364546, 46.048461079877896], [-87.35905105938608, 46.049369209614724], [-87.35970383186843, 46.049805378242866], [-87.36112264678903, 46.05085764310378], [-87.36172378395588, 46.0513504969452], [-87.42724807101713, 46.11062282740628], [-87.42856265399953, 46.11181429091303], [-87.42905948845022, 46.112305794138], [-87.4429276238246, 46.1272790736745], [-87.442985926738, 46.12734270781362], [-87.44417219283717, 46.12865155076003], [-87.44467024408615, 46.12925842796285], [-87.44572250894707, 46.13067724288344], [-87.44615867757523, 46.13133001536583], [-87.44706680731205, 46.13284513829732], [-87.44743689277705, 46.13353751950342], [-87.44819214160398, 46.13513435898371], [-87.44849257978046, 46.13585968090403], [-87.44908767423844, 46.13752285849602], [-87.44931557174255, 46.138274135883975], [-87.44974478074661, 46.13998763427826], [-87.44989794280076, 46.140757631921765], [-87.45015713283361, 46.14250494919212], [-87.45023408440353, 46.143286251593196], [-87.45032075932343, 46.14505056011913], [-87.45032075932343, 46.14583564290835], [-87.45023408440353, 46.14759995143429], [-87.45015713283361, 46.14838125383536], [-87.44989794280076, 46.15012857110572], [-87.44974478074661, 46.15089856874922], [-87.44931557174255, 46.15261206714351], [-87.44908767423844, 46.15336334453146], [-87.44849257978046, 46.15502652212346], [-87.44819214160398, 46.15575184404377], [-87.44743689277705, 46.15734868352406], [-87.44706680731205, 46.15804106473016], [-87.44615867757523, 46.15955618766165], [-87.44572250894707, 46.16020896014404], [-87.44467024408615, 46.16162777506463], [-87.44417219283717, 46.16223465226745], [-87.442985926738, 46.163543495213865], [-87.44243078937392, 46.164098632577954], [-87.4411219464275, 46.16528489867712], [-87.44051506922466, 46.16578294992612], [-87.43909625430406, 46.166835214787035], [-87.43844348182171, 46.167271383415176], [-87.43692835889023, 46.168179513152005], [-87.4362359776841, 46.168549598617], [-87.4346391382038, 46.16930484744393], [-87.43391381628346, 46.16960528562042], [-87.43225063869147, 46.17020038007839], [-87.43149936130362, 46.17042827758247], [-87.42978586290934, 46.17085748658655], [-87.42901586526574, 46.17101064864072], [-87.42726854799538, 46.17126983867356], [-87.42648724559434, 46.17134679024348], [-87.42472293706841, 46.17143346516338], [-87.42393785427917, 46.17143346516338], [-87.42217354575324, 46.17134679024348], [-87.4213922433522, 46.17126983867356], [-87.41964492608184, 46.17101064864072], [-87.41887492843824, 46.17085748658655], [-87.41716143004396, 46.17042827758247], [-87.41641015265611, 46.17020038007839], [-87.41474697506412, 46.16960528562042], [-87.41402165314378, 46.16930484744393], [-87.41242481366348, 46.168549598617], [-87.41173243245736, 46.168179513152005], [-87.41021730952588, 46.167271383415176], [-87.40956453704352, 46.166835214787035], [-87.40814572212292, 46.16578294992612], [-87.40753884492008, 46.16528489867712], [-87.40623000197367, 46.164098632577954], [-87.40613818692513, 46.16401410247231], [-87.3267457644895, 46.089768492474725], [-87.32628244217395, 46.08929788521628], [-87.32509617607478, 46.08798904226987], [-87.3245981248258, 46.08738216506705], [-87.32354585996488, 46.08596335014646], [-87.32310969133673, 46.08531057766407], [-87.3222015615999, 46.08379545473258], [-87.3218314761349, 46.08310307352648], [-87.32107622730797, 46.08150623404619], [-87.32077578913149, 46.080780912125874], [-87.32018069467351, 46.07911773453388], [-87.3199527971694, 46.078366457145925], [-87.31952358816534, 46.07665295875164], [-87.31937042611119, 46.075882961108135], [-87.31911123607834, 46.07413564383778], [-87.31903428450842, 46.073354341436705], [-87.31894760958852, 46.07159003291077], [-87.31894760958852, 46.07080495012155], [-87.31903428450842, 46.06904064159561], [-87.31911123607834, 46.06825933919454], [-87.31937042611119, 46.06651202192418], [-87.31952358816534, 46.06574202428068], [-87.3199527971694, 46.06402852588639], [-87.32018069467351, 46.06327724849844], [-87.32077578913149, 46.061614070906444], [-87.32107622730797, 46.06088874898613], [-87.3218314761349, 46.05929190950584], [-87.3222015615999, 46.05859952829974], [-87.32310969133673, 46.05708440536825], [-87.32354585996488, 46.05643163288586], [-87.3245981248258, 46.05501281796527], [-87.32509617607478, 46.05440594076245], [-87.32628244217395, 46.053097097816035], [-87.32683757953804, 46.05254196045195], [-87.32814642248445, 46.05135569435278], [-87.32875329968729, 46.05085764310378], [-87.33017211460789, 46.049805378242866], [-87.33082488709024, 46.049369209614724], [-87.33234001002172, 46.048461079877896], [-87.33303239122785, 46.0480909944129], [-87.33462923070815, 46.04733574558597], [-87.33535455262849, 46.04703530740948], [-87.33701773022048, 46.04644021295151], [-87.33776900760833, 46.046212315447434], [-87.33948250600261, 46.04578310644335], [-87.34025250364621, 46.045629944389184], [-87.34199982091657, 46.04537075435634], [-87.34278112331761, 46.04529380278642], [-87.34454543184354, 46.04520712786652]]]}}, {"type": "Feature", "properties": {"name": "Whitefish River dispersed opportunity corridor", "notes": "Working corridor around clustered Whitefish River dispersed-access points. Use as a broad search aid, not parcel-level legal proof.", "source": "Working corridor from known dispersed access points"}, "geometry": {"type": "Polygon", "coordinates": [[[-86.8488557177847, 46.068441047792895], [-86.84964080057397, 46.068441047792895], [-86.85101304053858, 46.06850846161949], [-86.85179434293957, 46.0685854131894], [-86.85315336748319, 46.068787005437166], [-86.8539233651268, 46.068940167491334], [-86.85525608610014, 46.06927399671673], [-86.85600736348806, 46.06950189422083], [-86.85730094605961, 46.069964745465924], [-86.85802626797985, 46.07026518364238], [-86.85926825424231, 46.07085259939665], [-86.8599606354485, 46.07122268486168], [-86.8611390643952, 46.07192900799033], [-86.86179183687752, 46.07236517661843], [-86.86289535959354, 46.073183604843585], [-86.8635022367964, 46.07368165609262], [-86.86452022575473, 46.07460430750309], [-86.86507536311879, 46.075159444867154], [-86.86599801452925, 46.07617743382547], [-86.86649606577826, 46.07678431102831], [-86.86731449400342, 46.077887833744335], [-86.86775066263158, 46.078540606226724], [-86.86845698576022, 46.07971903517343], [-86.8688270712252, 46.08041141637952], [-86.86941448697948, 46.08165340264197], [-86.86971492515596, 46.082378724562304], [-86.87017777640105, 46.08367230713385], [-86.87040567390514, 46.08442358452173], [-86.87073950313054, 46.08575630549507], [-86.8708926651847, 46.08652630313868], [-86.87109425743246, 46.087885327682294], [-86.87117120900238, 46.088666630083324], [-86.87123862282897, 46.09003887004794], [-86.87123862282897, 46.090823952837134], [-86.87117120900238, 46.09219619280175], [-86.87109425743246, 46.09297749520278], [-86.8708926651847, 46.09433651974639], [-86.87075419267521, 46.0950469038243], [-86.87044743349587, 46.09631269238176], [-86.8704327439512, 46.09637230594747], [-86.8700989147258, 46.097705026920806], [-86.86987101722171, 46.098456304308684], [-86.86940816597662, 46.09974988688023], [-86.86910772780014, 46.10047520880057], [-86.86852031204586, 46.10171719506302], [-86.86815022658088, 46.1024095762691], [-86.86744390345224, 46.10358800521581], [-86.86700773482409, 46.1042407776982], [-86.86618930659893, 46.105344300414224], [-86.86569125534992, 46.105951177617065], [-86.86476860393945, 46.10696916657538], [-86.86421346657539, 46.10752430393945], [-86.86319547761707, 46.10844695534992], [-86.8625886004142, 46.10894500659895], [-86.86148507769818, 46.1097634348241], [-86.86083230521587, 46.11019960345221], [-86.85965387626916, 46.110905926580855], [-86.85896149506297, 46.111276012045884], [-86.85771950880051, 46.11186342780016], [-86.85699418688027, 46.11216386597661], [-86.85570060430872, 46.11262671722171], [-86.8549493269208, 46.112854614725805], [-86.85361660594747, 46.1131884439512], [-86.85284660830385, 46.11334160600537], [-86.85148758376023, 46.11354319825313], [-86.85070628135924, 46.11362014982305], [-86.84933404139463, 46.11368756364964], [-86.84854895860536, 46.11368756364964], [-86.84717671864075, 46.11362014982305], [-86.84639541623976, 46.11354319825313], [-86.84503639169614, 46.11334160600537], [-86.84426639405253, 46.1131884439512], [-86.84293367307919, 46.112854614725805], [-86.84218239569127, 46.11262671722171], [-86.84088881311972, 46.11216386597661], [-86.84016349119948, 46.11186342780016], [-86.83892150493702, 46.111276012045884], [-86.83822912373083, 46.110905926580855], [-86.83705069478412, 46.11019960345221], [-86.83639792230181, 46.1097634348241], [-86.83529439958579, 46.10894500659895], [-86.83468752238292, 46.10844695534992], [-86.8336695334246, 46.10752430393945], [-86.83311439606054, 46.10696916657538], [-86.83219174465007, 46.105951177617065], [-86.83169369340106, 46.105344300414224], [-86.8308752651759, 46.1042407776982], [-86.83043909654775, 46.10358800521581], [-86.82973277341911, 46.1024095762691], [-86.82936268795413, 46.10171719506302], [-86.82877527219985, 46.10047520880057], [-86.82847483402337, 46.09974988688023], [-86.82801198277828, 46.098456304308684], [-86.82778408527419, 46.097705026920806], [-86.82745025604879, 46.09637230594747], [-86.82729709399463, 46.09560230830385], [-86.82709550174687, 46.09424328376024], [-86.82701855017694, 46.09346198135921], [-86.82695113635036, 46.092089741394595], [-86.82695113635036, 46.0913046586054], [-86.82701855017694, 46.089932418640785], [-86.82709550174687, 46.089151116239755], [-86.82729709399463, 46.087792091696144], [-86.82743556650412, 46.08708170761824], [-86.82774232568346, 46.08581591906078], [-86.82775701522813, 46.08575630549507], [-86.82809084445353, 46.08442358452173], [-86.82831874195762, 46.08367230713385], [-86.8287815932027, 46.082378724562304], [-86.82908203137919, 46.08165340264197], [-86.82966944713347, 46.08041141637952], [-86.83003953259845, 46.07971903517343], [-86.83074585572709, 46.078540606226724], [-86.83118202435524, 46.077887833744335], [-86.8320004525804, 46.07678431102831], [-86.83249850382941, 46.07617743382547], [-86.83342115523988, 46.075159444867154], [-86.83397629260394, 46.07460430750309], [-86.83499428156226, 46.07368165609262], [-86.83560115876513, 46.073183604843585], [-86.83670468148115, 46.07236517661843], [-86.83735745396346, 46.07192900799033], [-86.83853588291016, 46.07122268486168], [-86.83922826411636, 46.07085259939665], [-86.84047025037881, 46.07026518364238], [-86.84119557229906, 46.069964745465924], [-86.8424891548706, 46.06950189422083], [-86.84324043225853, 46.06927399671673], [-86.84457315323186, 46.068940167491334], [-86.84534315087548, 46.068787005437166], [-86.8467021754191, 46.0685854131894], [-86.84748347782009, 46.06850846161949], [-86.8488557177847, 46.068441047792895]]]}}, {"type": "Feature", "properties": {"name": "Peninsula Point / Stonington access corridor", "notes": "Working dispersed-access corridor near the Peninsula Point road approach.", "source": "Working corridor from known dispersed access points"}, "geometry": {"type": "Polygon", "coordinates": [[[-86.96613777395403, 45.65468136726277], [-86.96672658604597, 45.65468136726277], [-86.96868692885256, 45.654777672729324], [-86.96927290565333, 45.654835386406766], [-86.97121436928705, 45.655123375332145], [-86.97179186751976, 45.65523824687277], [-86.97369575462452, 45.655715145766194], [-86.97425921266542, 45.655886068894254], [-86.97610718776764, 45.65654728495867], [-86.97665117920789, 45.65677261359104], [-86.9784254452971, 45.6576117789543], [-86.97894473120168, 45.65788934305303], [-86.98062820112555, 45.658898376093944], [-86.98111778048735, 45.659225502565064], [-86.98269424151023, 45.66039468574386], [-86.98314939941237, 45.66076822418063], [-86.98460366935282, 45.66208629762416], [-86.98502002237585, 45.66250265064718], [-86.98633809581938, 45.66395692058763], [-86.98671163425615, 45.66441207848979], [-86.98788081743494, 45.665988539512675], [-86.98820794390605, 45.66647811887445], [-86.98921697694696, 45.66816158879832], [-86.9894945410457, 45.6686808747029], [-86.99033370640896, 45.67045514079212], [-86.9905590350413, 45.67099913223231], [-86.99122025110573, 45.67284710733452], [-86.99139117423383, 45.67341056537552], [-86.99186807312724, 45.675314452480286], [-86.99198294466785, 45.675891950712945], [-86.99227093359323, 45.67783341434668], [-86.99232864727067, 45.67841939114744], [-86.99242495273722, 45.680379733954034], [-86.99242495273722, 45.68096854604597], [-86.99232864727067, 45.68292888885256], [-86.99227093359323, 45.68351486565332], [-86.99198294466785, 45.68545632928706], [-86.99186807312724, 45.686033827519715], [-86.99139117423383, 45.68793771462448], [-86.99122025110573, 45.68850117266548], [-86.9905590350413, 45.69034914776769], [-86.99033370640896, 45.69089313920788], [-86.9894945410457, 45.6926674052971], [-86.98921697694696, 45.69318669120168], [-86.98820794390605, 45.69487016112555], [-86.98788081743494, 45.695359740487326], [-86.98671163425615, 45.69693620151021], [-86.98633809581938, 45.69739135941237], [-86.98502002237585, 45.698845629352824], [-86.98460366935282, 45.699261982375845], [-86.98314939941237, 45.70058005581937], [-86.98269424151023, 45.70095359425614], [-86.98111778048735, 45.70212277743494], [-86.98062820112555, 45.70244990390606], [-86.97894473120168, 45.70345893694697], [-86.9784254452971, 45.703736501045704], [-86.97665117920789, 45.704575666408964], [-86.97610718776764, 45.70480099504133], [-86.97425921266542, 45.70546221110575], [-86.97369575462452, 45.70563313423381], [-86.97179186751976, 45.70611003312723], [-86.97121436928705, 45.706224904667856], [-86.96927290565333, 45.706512893593235], [-86.96868692885256, 45.70657060727068], [-86.96672658604597, 45.706666912737234], [-86.96613777395403, 45.706666912737234], [-86.96417743114743, 45.70657060727068], [-86.96359145434667, 45.706512893593235], [-86.96164999071294, 45.706224904667856], [-86.96107249248024, 45.70611003312723], [-86.95916860537548, 45.70563313423381], [-86.95860514733458, 45.70546221110575], [-86.95675717223236, 45.70480099504133], [-86.9562131807921, 45.704575666408964], [-86.95443891470289, 45.703736501045704], [-86.95391962879832, 45.70345893694697], [-86.95223615887444, 45.70244990390606], [-86.95174657951264, 45.70212277743494], [-86.95017011848977, 45.70095359425614], [-86.94971496058763, 45.70058005581937], [-86.94826069064717, 45.699261982375845], [-86.94784433762415, 45.698845629352824], [-86.94652626418062, 45.69739135941237], [-86.94615272574384, 45.69693620151021], [-86.94498354256505, 45.695359740487326], [-86.94465641609395, 45.69487016112555], [-86.94364738305303, 45.69318669120168], [-86.9433698189543, 45.6926674052971], [-86.94253065359104, 45.69089313920788], [-86.9423053249587, 45.69034914776769], [-86.94164410889427, 45.68850117266548], [-86.94147318576617, 45.68793771462448], [-86.94099628687276, 45.686033827519715], [-86.94088141533214, 45.68545632928706], [-86.94059342640676, 45.68351486565332], [-86.94053571272933, 45.68292888885256], [-86.94043940726277, 45.68096854604597], [-86.94043940726277, 45.680379733954034], [-86.94053571272933, 45.67841939114744], [-86.94059342640676, 45.67783341434668], [-86.94088141533214, 45.675891950712945], [-86.94099628687276, 45.675314452480286], [-86.94147318576617, 45.67341056537552], [-86.94164410889427, 45.67284710733452], [-86.9423053249587, 45.67099913223231], [-86.94253065359104, 45.67045514079212], [-86.9433698189543, 45.6686808747029], [-86.94364738305303, 45.66816158879832], [-86.94465641609395, 45.66647811887445], [-86.94498354256505, 45.665988539512675], [-86.94615272574384, 45.66441207848979], [-86.94652626418062, 45.66395692058763], [-86.94784433762415, 45.66250265064718], [-86.94826069064717, 45.66208629762416], [-86.94971496058763, 45.66076822418063], [-86.95017011848977, 45.66039468574386], [-86.95174657951264, 45.659225502565064], [-86.95223615887444, 45.658898376093944], [-86.95391962879832, 45.65788934305303], [-86.95443891470289, 45.6576117789543], [-86.9562131807921, 45.65677261359104], [-86.95675717223236, 45.65654728495867], [-86.95860514733458, 45.655886068894254], [-86.95916860537548, 45.655715145766194], [-86.96107249248024, 45.65523824687277], [-86.96164999071294, 45.655123375332145], [-86.96359145434667, 45.654835386406766], [-86.96417743114743, 45.654777672729324], [-86.96613777395403, 45.65468136726277]]]}}]}